[{"OBJECT_NAME":"STARLINK-5554","OBJECT_ID":"2023-058X","EPOCH":"2026-03-09T23:34:52.877280","MEAN_MOTION":15.01260266,"ECCENTRICITY":0.0001228,"INCLINATION":97.6037,"RA_OF_ASC_NODE":70.4779,"ARG_OF_PERICENTER":102.7397,"MEAN_ANOMALY":257.3965,"EPHEMERIS_TYPE":0,"CLASSIFICATION_TYPE":"U","NORAD_CAT_ID":56338,"ELEMENT_SET_NO":999,"REV_AT_EPOCH":15817,"BSTAR":-2.4235782e-5,"MEAN_MOTION_DOT":-3.7e-6,"MEAN_MOTION_DDOT":0},{"OBJECT_NAME":"RROCI-2","OBJECT_ID":"2024-043J","EPOCH":"2026-03-09T21:40:56.693280","MEAN_MOTION":14.99383357,"ECCENTRICITY":0.00054118,"INCLINATION":97.8279,"RA_OF_ASC_NODE":200.9973,"ARG_OF_PERICENTER":337.3784,"MEAN_ANOMALY":22.7199,"EPHEMERIS_TYPE":0,"CLASSIFICATION_TYPE":"U","NORAD_CAT_ID":59106,"ELEMENT_SET_NO":999,"REV_AT_EPOCH":10988,"BSTAR":0.00035067832,"MEAN_MOTION_DOT":4.232e-5,"MEAN_MOTION_DDOT":0}]
